{
  "type": "FeatureCollection",
  "features": [
    {
      "type": "Feature",
      "properties": {
        "norad_id": 41772,
        "name": "SKYSAT-C5",
        "group": "resource",
        "lat": -21.178796488843552,
        "lon": 37.318527717739535,
        "alt_km": 468.2436893223121,
        "timestamp": "2025-12-16T23:36:35.842349+00:00",
        "meta_object_name": "SKYSAT-C5",
        "meta_object_id": "2016-058C",
        "meta_epoch": "2025-12-16T03:20:59.438976",
        "meta_mean_motion": 15.33938738,
        "meta_eccentricity": 0.00037842,
        "meta_inclination": 97.0765,
        "meta_ra_of_asc_node": 33.7507,
        "meta_arg_of_pericenter": 279.064,
        "meta_mean_anomaly": 81.0175,
        "meta_ephemeris_type": 0,
        "meta_classification_type": "U",
        "meta_norad_cat_id": 41772,
        "meta_element_set_no": 999,
        "meta_rev_at_epoch": 51568,
        "meta_bstar": 0.00027996502,
        "meta_mean_motion_dot": 9.12e-05,
        "meta_mean_motion_ddot": 0,
        "tle_line1": "1 41772U 16058C   25350.13957684  .00009120  00000+0  27997-3 0  9997",
        "tle_line2": "2 41772  97.0765  33.7507 0003784 279.0640  81.0175 15.33938738515689"
      },
      "geometry": {
        "type": "Point",
        "coordinates": [
          37.318527717739535,
          -21.178796488843552
        ]
      }
    },
    {
      "type": "Feature",
      "properties": {
        "norad_id": 41773,
        "name": "SKYSAT-C2",
        "group": "resource",
        "lat": 35.99249109130472,
        "lon": 10.184172812830308,
        "alt_km": 448.93868780809953,
        "timestamp": "2025-12-16T23:36:35.842360+00:00",
        "meta_object_name": "SKYSAT-C2",
        "meta_object_id": "2016-058D",
        "meta_epoch": "2025-12-16T01:34:57.592704",
        "meta_mean_motion": 15.37349108,
        "meta_eccentricity": 0.00038859,
        "meta_inclination": 97.0363,
        "meta_ra_of_asc_node": 14.4522,
        "meta_arg_of_pericenter": 26.1288,
        "meta_mean_anomaly": 334.0153,
        "meta_ephemeris_type": 0,
        "meta_classification_type": "U",
        "meta_norad_cat_id": 41773,
        "meta_element_set_no": 999,
        "meta_rev_at_epoch": 51687,
        "meta_bstar": 0.00024218094,
        "meta_mean_motion_dot": 8.79e-05,
        "meta_mean_motion_ddot": 0,
        "tle_line1": "1 41773U 16058D   25350.06594436  .00008790  00000+0  24218-3 0  9997",
        "tle_line2": "2 41773  97.0363  14.4522 0003885  26.1288 334.0153 15.37349108516878"
      },
      "geometry": {
        "type": "Point",
        "coordinates": [
          10.184172812830308,
          35.99249109130472
        ]
      }
    },
    {
      "type": "Feature",
      "properties": {
        "norad_id": 41774,
        "name": "SKYSAT-C3",
        "group": "resource",
        "lat": -25.831775905536098,
        "lon": 27.908686466263006,
        "alt_km": 439.29620177929246,
        "timestamp": "2025-12-16T23:36:35.842370+00:00",
        "meta_object_name": "SKYSAT-C3",
        "meta_object_id": "2016-058E",
        "meta_epoch": "2025-12-16T01:57:14.095296",
        "meta_mean_motion": 15.4451798,
        "meta_eccentricity": 0.00017972,
        "meta_inclination": 96.9302,
        "meta_ra_of_asc_node": 23.6723,
        "meta_arg_of_pericenter": 107.5702,
        "meta_mean_anomaly": 252.5744,
        "meta_ephemeris_type": 0,
        "meta_classification_type": "U",
        "meta_norad_cat_id": 41774,
        "meta_element_set_no": 999,
        "meta_rev_at_epoch": 51777,
        "meta_bstar": 0.00030905894,
        "meta_mean_motion_dot": 0.00014261,
        "meta_mean_motion_ddot": 0,
        "tle_line1": "1 41774U 16058E   25350.08141314  .00014261  00000+0  30906-3 0  9994",
        "tle_line2": "2 41774  96.9302  23.6723 0001797 107.5702 252.5744 15.44517980517773"
      },
      "geometry": {
        "type": "Point",
        "coordinates": [
          27.908686466263006,
          -25.831775905536098
        ]
      }
    },
    {
      "type": "Feature",
      "properties": {
        "norad_id": 41785,
        "name": "ALSAT 1B",
        "group": "resource",
        "lat": 11.303650623977743,
        "lon": -175.84256961019946,
        "alt_km": 654.2155577104495,
        "timestamp": "2025-12-16T23:36:35.842381+00:00",
        "meta_object_name": "ALSAT 1B",
        "meta_object_id": "2016-059C",
        "meta_epoch": "2025-12-16T08:09:58.164192",
        "meta_mean_motion": 14.72080124,
        "meta_eccentricity": 0.00107737,
        "meta_inclination": 97.7818,
        "meta_ra_of_asc_node": 1.9753,
        "meta_arg_of_pericenter": 93.0198,
        "meta_mean_anomaly": 267.2243,
        "meta_ephemeris_type": 0,
        "meta_classification_type": "U",
        "meta_norad_cat_id": 41785,
        "meta_element_set_no": 999,
        "meta_rev_at_epoch": 49367,
        "meta_bstar": 8.8859802e-05,
        "meta_mean_motion_dot": 5.12e-06,
        "meta_mean_motion_ddot": 0,
        "tle_line1": "1 41785U 16059C   25350.34025653  .00000512  00000+0  88860-4 0  9990",
        "tle_line2": "2 41785  97.7818   1.9753 0010773  93.0198 267.2243 14.72080124493674"
      },
      "geometry": {
        "type": "Point",
        "coordinates": [
          -175.84256961019946,
          11.303650623977743
        ]
      }
    },
    {
      "type": "Feature",
      "properties": {
        "norad_id": 41787,
        "name": "PATHFINDER 1",
        "group": "resource",
        "lat": 5.067852377676794,
        "lon": 174.25818017553857,
        "alt_km": 677.8922065697634,
        "timestamp": "2025-12-16T23:36:35.842391+00:00",
        "meta_object_name": "PATHFINDER 1",
        "meta_object_id": "2016-059E",
        "meta_epoch": "2025-12-16T06:27:10.171008",
        "meta_mean_motion": 14.67327463,
        "meta_eccentricity": 0.00299728,
        "meta_inclination": 97.8137,
        "meta_ra_of_asc_node": 352.8787,
        "meta_arg_of_pericenter": 70.4886,
        "meta_mean_anomaly": 289.9552,
        "meta_ephemeris_type": 0,
        "meta_classification_type": "U",
        "meta_norad_cat_id": 41787,
        "meta_element_set_no": 999,
        "meta_rev_at_epoch": 49288,
        "meta_bstar": 0.00014556755,
        "meta_mean_motion_dot": 7.81e-06,
        "meta_mean_motion_ddot": 0,
        "tle_line1": "1 41787U 16059E   25350.26886772  .00000781  00000+0  14557-3 0  9999",
        "tle_line2": "2 41787  97.8137 352.8787 0029972  70.4886 289.9552 14.67327463492880"
      },
      "geometry": {
        "type": "Point",
        "coordinates": [
          174.25818017553857,
          5.067852377676794
        ]
      }
    },
    {
      "type": "Feature",
      "properties": {
        "norad_id": 41790,
        "name": "SCATSAT 1",
        "group": "resource",
        "lat": -16.023727186561203,
        "lon": 50.064627860722226,
        "alt_km": 663.0789092903451,
        "timestamp": "2025-12-16T23:36:35.842401+00:00",
        "meta_object_name": "SCATSAT 1",
        "meta_object_id": "2016-059H",
        "meta_epoch": "2025-12-16T04:11:53.933856",
        "meta_mean_motion": 14.78948032,
        "meta_eccentricity": 0.00563658,
        "meta_inclination": 98.1461,
        "meta_ra_of_asc_node": 46.8881,
        "meta_arg_of_pericenter": 117.145,
        "meta_mean_anomaly": 243.5524,
        "meta_ephemeris_type": 0,
        "meta_classification_type": "U",
        "meta_norad_cat_id": 41790,
        "meta_element_set_no": 999,
        "meta_rev_at_epoch": 7453,
        "meta_bstar": 0.00020042299,
        "meta_mean_motion_dot": 1.462e-05,
        "meta_mean_motion_ddot": 0,
        "tle_line1": "1 41790U 16059H   25350.17492979  .00001462  00000+0  20042-3 0  9998",
        "tle_line2": "2 41790  98.1461  46.8881 0056365 117.1450 243.5524 14.78948032 74531"
      },
      "geometry": {
        "type": "Point",
        "coordinates": [
          50.064627860722226,
          -16.023727186561203
        ]
      }
    },
    {
      "type": "Feature",
      "properties": {
        "norad_id": 41875,
        "name": "GOKTURK 1A",
        "group": "resource",
        "lat": -2.5345327877871315,
        "lon": 62.92907951157334,
        "alt_km": 687.744244771694,
        "timestamp": "2025-12-16T23:36:35.842411+00:00",
        "meta_object_name": "GOKTURK 1A",
        "meta_object_id": "2016-073A",
        "meta_epoch": "2025-12-16T08:00:12.607200",
        "meta_mean_motion": 14.62783908,
        "meta_eccentricity": 0.0001268,
        "meta_inclination": 98.1429,
        "meta_ra_of_asc_node": 242.6508,
        "meta_arg_of_pericenter": 79.5089,
        "meta_mean_anomaly": 280.6255,
        "meta_ephemeris_type": 0,
        "meta_classification_type": "U",
        "meta_norad_cat_id": 41875,
        "meta_element_set_no": 999,
        "meta_rev_at_epoch": 48209,
        "meta_bstar": 8.0923828e-05,
        "meta_mean_motion_dot": 3.66e-06,
        "meta_mean_motion_ddot": 0,
        "tle_line1": "1 41875U 16073A   25350.33347925  .00000366  00000+0  80924-4 0  9994",
        "tle_line2": "2 41875  98.1429 242.6508 0001268  79.5089 280.6255 14.62783908482091"
      },
      "geometry": {
        "type": "Point",
        "coordinates": [
          62.92907951157334,
          -2.5345327877871315
        ]
      }
    }
  ]
}